# From MPEC 2015-M77
125P/Spacewatch,e,9.9866,153.1460,87.2335,3.126522,0.1782838,0.51240600,213.5786,12/07.0/2021,2000,g  9.0,4.0
# From MPC 66205
126P/IRAS,e,45.8751,357.8701,356.5496,5.637829,0.0736268,0.69637033,317.6425,12/07.0/2021,2000,g  9.0,4.0
# From MPC 84321
127P/Holt-Olmstead,e,14.2969,13.6181,6.3902,3.453879,0.1535477,0.36005430,322.1065,12/07.0/2021,2000,g 11.0,6.0
# From MPC 89014
128P/Shoemaker-Holt,e,4.3687,214.3063,210.2725,4.490895,0.1035630,0.32110808,185.6253,12/07.0/2021,2000,g  8.5,4.0
# From MPEC 2019-TG9
129P/Shoemaker-Levy,e,3.4421,184.8727,307.6260,4.285161,0.1111101,0.08425966,320.0525,12/07.0/2021,2000,g 11.0,4.0
# From MPC 78188
130P/McNaught-Hughes,e,6.0624,70.2095,246.0464,3.383636,0.1583539,0.46134447,223.8979,12/07.0/2021,2000,g 10.0,6.0
# From MPC102101
131P/Mueller,e,7.3575,214.1496,179.0286,3.680030,0.1396134,0.34420910,146.2205,12/07.0/2021,2000,g 11.0,4.0
# From MPEC 2021-WD8
132P/Helin-Roman-Alu,e,5.3826,173.9971,216.3491,3.885790,0.1286723,0.56462612,3.0735,12/07.0/2021,2000,g 11.0,6.0
# From MPC 94676
133P/Elst-Pizarro,e,1.3894,160.1006,131.8771,3.165212,0.1750249,0.15674122,205.1505,12/07.0/2021,2000,g 15.4,2.0
# From MPC 89012
134P/Kowal-Vavrova,e,4.3373,202.0640,18.8854,6.261963,0.0628982,0.58560030,173.6544,12/07.0/2021,2000,g 11.5,4.0
# From MPEC 2021-F20
135P/Shoemaker-Levy,e,6.0628,213.0244,22.3193,3.801844,0.1329575,0.29505411,343.8681,12/07.0/2021,2000,g  7.0,8.0
# From MPEC 2020-W26
136P/Mueller,e,9.4244,137.4474,224.9518,4.192068,0.1148316,0.29307156,231.1351,12/07.0/2021,2000,g 11.0,4.0
# From MPEC 2021-N06
137P/Shoemaker-Levy,e,4.8548,233.0037,141.0674,4.520788,0.1025375,0.57369689,111.6585,12/07.0/2021,2000,g 11.0,4.0
# From MPEC 2016-U66
138P/Shoemaker-Levy,e,10.0905,309.3224,95.5406,3.621517,0.1430106,0.53080266,135.6991,12/07.0/2021,2000,g 15.0,6.0
# From MPEC 2020-HN5
139P/Vaisala-Oterma,e,2.3348,242.1574,165.7141,4.521219,0.1025229,0.24716281,149.4690,12/07.0/2021,2000,g  9.5,4.0
# From MPEC 2015-E14
140P/Bowell-Skiff,e,3.8385,343.2538,172.8330,6.425529,0.0605119,0.69192937,140.1757,12/07.0/2021,2000,g 11.5,6.0
# From MPEC 2021-AJ0
141P/Machholz,e,13.9463,241.8305,153.5596,3.057456,0.1843587,0.73583012,65.5734,12/07.0/2021,2000,g 14.7,4.0
# From MPEC 2021-W31
142P/Ge-Wang,e,12.2514,175.9330,173.9671,4.999257,0.0881751,0.49729987,18.3680,12/07.0/2021,2000,g 15.1,4.0
# From MPEC 2021-W31
143P/Kowal-Mrkos,e,4.7001,245.1792,320.3511,4.279939,0.1113135,0.41111192,146.0475,12/07.0/2021,2000,g 13.5,2.0
# From MPC104795
144P/Kushida,e,3.9342,243.1496,216.3248,3.822565,0.1318778,0.63559859,257.1804,12/07.0/2021,2000,g  8.5,8.0
# From MPC108598
145P/Shoemaker-Levy,e,11.2762,26.7903,10.2410,4.137635,0.1171051,0.54178488,182.3448,12/07.0/2021,2000,g 13.5,4.0
# From MPC100284
146P/Shoemaker-LINEAR,e,23.1046,53.3865,316.9707,4.031412,0.1217638,0.64724746,241.5892,12/07.0/2021,2000,g 15.0,4.0
# From MPC 75720
147P/Kushida-Muramatsu,e,2.3188,92.6197,348.7904,4.020697,0.1222509,0.22405786,270.6967,12/07.0/2021,2000,g 14.0,4.0
# From MPEC 2021-WD8
148P/Anderson-LINEAR,e,3.6580,89.2134,8.0072,3.618597,0.1431837,0.54985483,332.9877,12/07.0/2021,2000,g 16.0,2.0
# From MPC 75720
149P/Mueller,e,34.8430,144.2771,31.3556,4.129027,0.1174715,0.32543910,141.4753,12/07.0/2021,2000,g  8.0,8.0
# From MPEC 2021-W31
150P/LONEOS,e,18.5058,272.3337,245.5985,3.879099,0.1290054,0.54759882,253.2916,12/07.0/2021,2000,g 13.5,4.0
# From MPEC 2015-Q71
151P/Helin,e,4.7288,143.1584,216.0625,5.763191,0.0712376,0.57370195,160.1654,12/07.0/2021,2000,g 10.0,6.0
# From MPEC 2021-F20
152P/Helin-Lawrence,e,9.8804,91.8585,163.9391,4.476564,0.1040607,0.30863627,356.0809,12/07.0/2021,2000,g 12.6,4.0
# From MPC 46101
153P/Ikeya-Zhang,e,27.9074,93.2382,34.9911,50.54091,0.0027431,0.98964362,0.0000,03/04.3366/2002,2000,g  9.0,4.0
# From MPC 87068
154P/Brewington,e,17.6332,343.0409,47.8511,4.801963,0.0936647,0.67590003,273.8447,12/07.0/2021,2000,g  2.5,12.0
# From MPEC 2021-F20
155P/Shoemaker,e,6.3973,97.1867,14.5990,6.574750,0.0584636,0.72621375,44.0302,12/07.0/2021,2000,g 13.8,4.0
# From MPEC 2021-O56
156P/Russell-LINEAR,e,17.2637,35.3555,0.4480,3.461412,0.1530467,0.61493254,58.7820,12/07.0/2021,2000,g 15.5,2.0
# From MPEC 2021-W31
157P/Tritton,e,12.4257,287.5940,154.9795,3.548259,0.1474624,0.55698849,319.1929,12/07.0/2021,2000,g 10.0,4.0
# From MPEC 2021-W31
158P/Kowal-LINEAR,e,7.9703,135.4813,174.5164,5.078004,0.0861320,0.05480384,15.9326,12/07.0/2021,2000,g  9.0,4.0
# From MPEC 2021-N06
159P/LONEOS,e,23.4704,54.9676,4.5595,5.853376,0.0695976,0.38198510,90.1167,12/07.0/2021,2000,g 10.0,4.0
# From MPEC 2021-J28
160P/LINEAR,e,15.6170,333.3591,12.7305,3.775211,0.1343669,0.52631744,98.8258,12/07.0/2021,2000,g 15.5,2.0
# From MPC 75721
161P/Hartley-IRAS,e,95.7953,1.5679,46.9721,7.722684,0.0459253,0.83497263,276.5209,12/07.0/2021,2000,g  8.5,6.0
# From MPEC 2021-W31
162P/SidingSpring,e,27.5564,30.8994,357.1566,3.091537,0.1813186,0.58301645,66.0253,12/07.0/2021,2000,g 12.0,4.0
# From MPEC 2021-S45
163P/NEAT,e,12.7099,102.0801,349.5848,3.766665,0.1348244,0.45200651,115.2692,12/07.0/2021,2000,g 14.5,4.0
# From MPEC 2021-F20
164P/Christensen,e,16.2594,88.2813,325.8363,3.656014,0.1409913,0.54034347,181.2221,12/07.0/2021,2000,g 11.0,4.0
# From MPC 75721
165P/LINEAR,e,15.8949,0.8596,125.9382,17.86745,0.0130500,0.61526316,102.7955,12/07.0/2021,2000,g 11.5,2.0
# From MPC 75722
166P/NEAT,e,15.3737,64.4144,321.4938,13.81627,0.0191919,0.38396555,137.0205,12/07.0/2021,2000,g  5.5,4.0
# From MPC 75722
167P/CINEOS,e,19.1164,295.6784,344.6343,16.22718,0.0150778,0.27149337,113.2965,12/07.0/2021,2000,g  9.5,2.0
# From MPC102101
168P/Hergenrother,e,21.6238,355.4517,15.0038,3.582348,0.1453625,0.62105879,124.2088,12/07.0/2021,2000,g 15.5,4.0
# From MPEC 2021-N06
169P/NEAT,e,11.2989,176.1086,218.0492,2.601350,0.2349124,0.76827234,309.5665,12/07.0/2021,2000,g 16.0,2.0
# From MPEC 2021-O56
170P/Christensen,e,10.1251,142.9222,225.6264,4.199526,0.1145259,0.30394033,302.7246,12/07.0/2021,2000,g 12.0,4.0
# From MPC102102
171P/Spahr,e,21.9368,101.6920,347.0625,3.554861,0.1470517,0.50169751,155.6934,12/07.0/2021,2000,g 13.5,4.0
# From MPEC 2021-WD8
172P/Yeung,e,11.2268,30.8859,209.3949,4.214216,0.1139276,0.20512189,197.2322,12/07.0/2021,2000,g 13.0,4.0
# From MPEC 2021-W31
173P/Mueller,e,16.4928,100.4005,29.1809,5.706373,0.0723043,0.26099149,359.2972,12/07.0/2021,2000,g  7.5,4.0
# From MPC 92985
174P/Echeclus,e,4.3436,173.2041,163.1891,10.72671,0.0280546,0.45742175,67.8102,12/07.0/2021,2000,g  9.4,2.0
# From MPC114608
175P/Hergenrother,e,5.8464,122.4274,59.7350,3.489912,0.1511758,0.43451771,118.9576,12/07.0/2021,2000,g 14.0,4.0
# From MPC 89015
176P/LINEAR,e,0.2346,345.9745,34.7724,3.195818,0.1725166,0.19315261,299.4816,12/07.0/2021,2000,g 15.1,2.0
# From MPEC 2020-L06
177P/Barnard,e,31.2347,272.1593,60.3344,24.44457,0.0081551,0.95532804,45.4451,12/07.0/2021,2000,g 15.0,4.0
# From MPEC 2021-F20
178P/Hug-Bell,e,11.0879,102.8665,297.7995,3.632298,0.1423744,0.48218069,72.3666,12/07.0/2021,2000,g 14.6,4.0
# From MPEC 2021-WD8
179P/Jedicke,e,19.8979,115.5161,296.8673,5.933374,0.0681948,0.30597436,348.1382,12/07.0/2021,2000,g  2.5,8.0
# From MPC100284
180P/NEAT,e,16.8642,84.5711,94.7554,3.864174,0.1297535,0.35302550,284.4118,12/07.0/2021,2000,g 11.0,4.0
# From MPC 89012
181P/Shoemaker-Levy,e,17.4856,35.4042,336.2315,3.874506,0.1292348,0.70064922,355.7675,12/07.0/2021,2000,g 11.5,4.0
# From MPEC 2014-J10
182P/LONEOS,e,16.2261,72.4620,54.2242,2.950924,0.1944317,0.66320393,329.6218,12/07.0/2021,2000,g 18.0,4.0
# From MPEC 2021-S45
183P/Korlevic-Juric,e,18.9060,4.1900,167.6479,4.563314,0.1011075,0.13126606,148.1611,12/07.0/2021,2000,g 12.5,2.0
# From MPEC 2020-W26
184P/Lovas,e,4.5734,173.2461,186.4843,3.794954,0.1333197,0.55105189,54.2262,12/07.0/2021,2000,g 13.5,4.0
# From MPC109593
185P/Petriew,e,14.0108,214.1042,181.8756,3.098556,0.1807029,0.69945035,254.6498,12/07.0/2021,2000,g 15.0,4.0
# From MPEC 2021-W31
186P/Garradd,e,28.8271,326.6119,272.9447,4.891716,0.0910987,0.12206046,94.8303,12/07.0/2021,2000,g  7.5,4.0
# From MPEC 2020-SI8
187P/LINEAR,e,13.6342,109.9131,131.7119,4.568289,0.1009424,0.15202671,131.5316,12/07.0/2021,2000,g  9.0,4.0
# From MPC106349
188P/LINEAR-Mueller,e,10.5259,358.9656,26.5695,4.373067,0.1077767,0.41621897,188.8623,12/07.0/2021,2000,g 11.5,4.0
# From MPC106349
189P/NEAT,e,20.0684,281.7228,16.3112,2.946018,0.1949176,0.58872510,308.3803,12/07.0/2021,2000,g 19.0,4.0
# From MPEC 2020-K19
190P/Mueller,e,2.1742,335.5732,50.3008,4.233025,0.1131691,0.52173565,234.0166,12/07.0/2021,2000,g 13.0,4.0
# From MPEC 2021-WD8
191P/McNaught,e,8.8424,98.2332,284.0352,3.635298,0.1421982,0.38591796,37.2283,12/07.0/2021,2000,g 13.0,4.0
# From MPC 75724
192P/Shoemaker-Levy,e,24.5693,51.6143,312.9955,6.474188,0.0598310,0.77337237,306.1905,12/07.0/2021,2000,g 15.0,4.0
# From MPEC 2021-WD8
193P/LINEAR-NEAT,e,10.6885,335.1743,8.0886,3.577733,0.1456439,0.39403054,15.1136,12/07.0/2021,2000,g 14.0,4.0
# From MPC 98566
194P/LINEAR,e,11.9139,349.7139,131.0304,4.032697,0.1217056,0.58121429,264.6609,12/07.0/2021,2000,g 16.0,4.0
# From MPEC 2021-S45
195P/Hill,e,36.3318,243.1257,249.2619,6.505105,0.0594050,0.31357972,281.0728,12/07.0/2021,2000,g  8.5,4.0
# From MPC 92985
196P/Tichy,e,19.2928,24.1416,12.1568,3.804596,0.1328132,0.42862819,316.6146,12/07.0/2021,2000,g 13.5,4.0
# From MPC 94676
197P/LINEAR,e,25.5299,66.3742,188.7501,2.867891,0.2029364,0.62946223,285.7850,12/07.0/2021,2000,g 16.5,2.0
# From NK 1596
198P/ODAS,e,1.3387,358.2508,69.1777,3.597983,0.1444160,0.44365258,157.2765,12/07.0/2021,2000,g  9.0,4.0
# From MPC 75725
199P/Shoemaker,e,24.9318,92.3693,191.7097,5.890811,0.0689353,0.50588303,318.0143,12/07.0/2021,2000,g 10.0,4.0
# From MPEC 2021-F20
200P/Larsen,e,12.0989,234.7769,134.1536,4.942781,0.0896906,0.33267589,77.2702,12/07.0/2021,2000,g  9.0,4.0
# From MPC 93588
201P/LONEOS,e,5.7391,19.7463,41.5474,3.354326,0.1604339,0.63708549,31.1751,12/07.0/2021,2000,g 14.0,4.0
# From MPEC 2021-N06
